STARLINK-31554          
1 59195U 24045T   26068.45706740 -.00001011  00000+0 -27212-4 0  9991
2 59195  43.0054  94.0421 0001472 276.0564  84.0120 15.27573123113120
TEVEL2-3                
1 63218U 25052J   26068.64540225  .00020365  00000+0  69446-3 0  9991
2 63218  97.3994 324.7775 0004761 105.7353 254.4413 15.30377031 54855
